NORAD_CAT_ID,OBJECT_NAME,OBJECT_TYPE,EPOCH,MEAN_MOTION,ECCENTRICITY,INCLINATION,RA_OF_ASC_NODE,ARG_OF_PERICENTER,MEAN_ANOMALY,BSTAR,MEAN_MOTION_DOT,MEAN_MOTION_DDOT,TLE_LINE0,TLE_LINE1,TLE_LINE2,SEMIMAJOR_AXIS,PERIOD,APOGEE,PERIGEE,DECAYED
51804.0,STARLINK-3601,PAYLOAD,2022-08-30 04:00:00,15.0880632,0.0001311,53.2194,349.0296,87.2936,201.9339,0.0031715999999999,0.00050503,0.0,0 STARLINK-3601,1 51804U 22017AN  22242.16667824  .00050503  00000-0  31716-2 0  9995,2 51804  53.2194 349.0296 0001311  87.2936 201.9339 15.08806320 29885,6917.983,95.44,540.755,538.941,0.0
51804.0,STARLINK-3601,PAYLOAD,2022-08-30 14:00:01,15.08839267,0.00014,53.2195,347.161,79.2572,314.4425,-0.00062267,-0.00010184,0.0,0 STARLINK-3601,1 51804U 22017AN  22242.58334491 -.00010184  00000-0 -62267-3 0  9991,2 51804  53.2195 347.1610 0001400  79.2572 314.4425 15.08839267  1300,6917.8830000000025,95.438,540.716,538.779,0.0
51804.0,STARLINK-3601,PAYLOAD,2022-08-30 20:00:01,15.08852177,0.0001341,53.2192,346.0387,76.7011,235.691,-0.00088654,-0.00014374,0.0,0 STARLINK-3601,1 51804U 22017AN  22242.83334491 -.00014374  00000-0 -88654-3 0  9992,2 51804  53.2192 346.0387 0001341  76.7011 235.6910 15.08852177 29982,6917.843000000003,95.437,540.636,538.78,0.0
51804.0,STARLINK-3601,PAYLOAD,2022-08-30 22:00:00,15.08872634,0.0001351,53.2193,345.6641,78.9889,326.2993,-0.0041724,-0.0006614,0.0,0 STARLINK-3601,1 51804U 22017AN  22242.91667824 -.00066140  00000-0 -41724-2 0  9994,2 51804  53.2193 345.6641 0001351  78.9889 326.2993 15.08872634  1303,6917.781,95.435,540.58,538.711,0.0
51804.0,STARLINK-3601,PAYLOAD,2022-08-31 14:00:01,15.08830031,0.0001450999999999,53.2193,342.6722,80.1144,348.3548,-0.00030308,-5.107e-05,0.0,0 STARLINK-3601,1 51804U 22017AN  22243.58334491 -.00005107  00000-0 -30308-3 0  9992,2 51804  53.2193 342.6722 0001451  80.1144 348.3548 15.08830031  1306,6917.911,95.438,540.78,538.7719999999998,0.0
51804.0,STARLINK-3601,PAYLOAD,2022-08-31 22:00:00,15.08856429,0.0001446,53.2182,341.1745,77.0752,2.9712,-0.0012357999999999,-0.00019911,0.0,0 STARLINK-3601,1 51804U 22017AN  22243.91667824 -.00019911  00000-0 -12358-2 0  9990,2 51804  53.2182 341.1745 0001446  77.0752   2.9712 15.08856429 30146,6917.83,95.437,540.695,538.695,0.0
51804.0,STARLINK-3601,PAYLOAD,2022-09-01 14:00:01,15.0884238,0.0001385,53.2189,338.1834,80.6396,22.661,-3.2542e-05,-8.06e-06,0.0,0 STARLINK-3601,1 51804U 22017AN  22244.58335648 -.00000806  00000-0 -32542-4 0  9992,2 51804  53.2189 338.1834 0001385  80.6396  22.6610 15.08842380  1307,6917.873000000001,95.437,540.696,538.78,0.0
51804.0,STARLINK-3601,PAYLOAD,2022-09-01 20:00:01,15.0885853,0.0001313,53.2184,337.0607,78.5972,303.3999,-0.00075202,-0.00012242,0.0,0 STARLINK-3601,1 51804U 22017AN  22244.83335648 -.00012242  00000-0 -75202-3 0  9996,2 51804  53.2184 337.0607 0001313  78.5972 303.3999 15.08858530 30287,6917.824000000001,95.436,540.597,538.78,0.0
51804.0,STARLINK-3601,PAYLOAD,2022-09-01 22:00:00,15.08865392,0.0001307,53.2185,336.6862,82.4675,32.3676,-0.0017477999999999,-0.00028015,0.0,0 STARLINK-3601,1 51804U 22017AN  22244.91667824 -.00028015  00000-0 -17478-2 0  9994,2 51804  53.2185 336.6862 0001307  82.4675  32.3676 15.08865392  1309,6917.803000000001,95.436,540.572,538.764,0.0
51804.0,STARLINK-3601,PAYLOAD,2022-09-02 14:00:01,15.08829338,0.0001205999999999,53.2184,333.6944,79.6389,58.425,-0.00022467,-3.861e-05,0.0,0 STARLINK-3601,1 51804U 22017AN  22245.58334491 -.00003861  00000-0 -22467-3 0  9996,2 51804  53.2184 333.6944 0001206  79.6389  58.4250 15.08829338  1301,6917.913000000001,95.438,540.612,538.944,0.0
51804.0,STARLINK-3601,PAYLOAD,2022-09-02 22:00:01,15.08846264,0.0001137,53.218,332.19699999999995,82.4488,67.2557,-0.0018062999999999,-0.00028925,0.0,0 STARLINK-3601,1 51804U 22017AN  22245.91668981 -.00028925  00000-0 -18063-2 0  9991,2 51804  53.2180 332.1970 0001137  82.4488  67.2557 15.08846264 30458,6917.861,95.437,540.513,538.94,0.0
51804.0,STARLINK-3601,PAYLOAD,2022-09-03 12:00:00,15.08849965,0.0001205,53.2179,329.5792,79.6408,0.2935,-0.00087101,-0.00014127,0.0,0 STARLINK-3601,1 51804U 22017AN  22246.50001157 -.00014127  00000-0 -87101-3 0  9992,2 51804  53.2179 329.5792 0001205  79.6408   0.2935 15.08849965 30531,6917.85,95.437,540.549,538.881,0.0
51804.0,STARLINK-3601,PAYLOAD,2022-09-03 14:00:01,15.08836351,0.0001216,53.218,329.2054,76.8514,95.987,0.00098807,0.00015471,0.0,0 STARLINK-3601,1 51804U 22017AN  22246.58334491  .00015471  00000-0  98807-3 0  9996,2 51804  53.2180 329.2054 0001216  76.8514  95.9870 15.08836351  1307,6917.892,95.438,540.5980000000002,538.915,0.0
51804.0,STARLINK-3601,PAYLOAD,2022-09-03 22:00:00,15.08870029,0.0001190999999999,53.2178,327.7078,80.1801,104.2601,-0.0038818,-0.00061588,0.0,0 STARLINK-3601,1 51804U 22017AN  22246.91667824 -.00061588  00000-0 -38818-2 0  9999,2 51804  53.2178 327.7078 0001191  80.1801 104.2601 15.08870029  1308,6917.7890000000025,95.436,540.4780000000002,538.83,0.0
51804.0,STARLINK-3601,PAYLOAD,2022-09-04 14:00:01,15.08812182,0.0001453,53.218,324.7162,75.4225,132.2729,0.0024249,0.00038486,0.0,0 STARLINK-3601,1 51804U 22017AN  22247.58335648  .00038486  00000-0  24249-2 0  9991,2 51804  53.2180 324.7162 0001453  75.4225 132.2729 15.08812182 30704,6917.965,95.439,540.836,538.825,0.0
51804.0,STARLINK-3601,PAYLOAD,2022-09-04 20:00:01,15.08850443,0.0001395999999999,53.2179,323.5932,75.5577,50.7509,-0.00065672,-0.00010727,0.0,0 STARLINK-3601,1 51804U 22017AN  22247.83334491 -.00010727  00000-0 -65672-3 0  9990,2 51804  53.2179 323.5932 0001396  75.5577  50.7509 15.08850443  1307,6917.848000000001,95.437,540.679,538.748,0.0
51804.0,STARLINK-3601,PAYLOAD,2022-09-05 12:00:00,15.08878496,0.0001438,53.2182,320.6009,74.7393,74.7889,-0.0027268,-0.00043469,0.0,0 STARLINK-3601,1 51804U 22017AN  22248.50001157 -.00043469  00000-0 -27268-2 0  9992,2 51804  53.2182 320.6009 0001438  74.7393  74.7889 15.08878496 30844,6917.763000000001,95.435,540.622,538.633,0.0
51804.0,STARLINK-3601,PAYLOAD,2022-09-05 14:00:01,15.088617499999998,0.0001436,53.2184,320.2271,72.7427,169.696,-0.0012797,-0.00020609,0.0,0 STARLINK-3601,1 51804U 22017AN  22248.58334491 -.00020609  00000-0 -12797-2 0  9992,2 51804  53.2184 320.2271 0001436  72.7427 169.6960 15.08861750  1305,6917.814,95.436,540.672,538.686,0.0
51804.0,STARLINK-3601,PAYLOAD,2022-09-05 22:00:00,15.08849206,0.0001338,53.2186,318.7293,76.3714,177.6823,-0.0037788,-0.00059942,0.0,0 STARLINK-3601,1 51804U 22017AN  22248.91667824 -.00059942  00000-0 -37788-2 0  9997,2 51804  53.2186 318.7293 0001338  76.3714 177.6823 15.08849206  1302,6917.852,95.437,540.643,538.7919999999998,0.0
51804.0,STARLINK-3601,PAYLOAD,2022-09-06 12:00:00,15.08798767,0.0001385,53.2186,316.1121,71.583,112.7159,0.00061424,9.49e-05,0.0,0 STARLINK-3601,1 51804U 22017AN  22249.50001157  .00009490  00000-0  61424-3 0  9990,2 51804  53.2186 316.1121 0001385  71.5830 112.7159 15.08798767 30996,6918.005999999999,95.44,540.83,538.913,0.0
51804.0,STARLINK-3601,PAYLOAD,2022-09-06 14:00:01,15.08785305,0.0001403,53.2188,315.7383,69.5555,207.6344,0.002902,0.0004613,0.0,0 STARLINK-3601,1 51804U 22017AN  22249.58334491  .00046130  00000-0  29020-2 0  9995,2 51804  53.2188 315.7383 0001403  69.5555 207.6344 15.08785305  1302,6918.0480000000025,95.441,540.883,538.942,0.0
51804.0,STARLINK-3601,PAYLOAD,2022-09-06 22:00:00,15.088184599999998,0.0001284999999999,53.2189,314.2406,75.0278,213.7096,-0.00032994,-5.532e-05,0.0,0 STARLINK-3601,1 51804U 22017AN  22249.91667824 -.00005532  00000-0 -32994-3 0  9999,2 51804  53.2189 314.2406 0001285  75.0278 213.7096 15.08818460  1306,6917.946,95.439,540.7,538.922,0.0
51804.0,STARLINK-3601,PAYLOAD,2022-09-07 14:00:01,15.08808709,0.000138,53.2188,311.2497,68.4173,243.4658,0.0028866,0.00045912,0.0,0 STARLINK-3601,1 51804U 22017AN  22250.58334491  .00045912  00000-0  28866-2 0  9991,2 51804  53.2188 311.2497 0001380  68.4173 243.4658 15.08808709  1307,6917.976,95.44,540.7959999999998,538.886,0.0
51804.0,STARLINK-3601,PAYLOAD,2022-09-07 20:00:01,15.088506699999998,0.000128,53.2186,310.1263,72.1704,158.4504,-0.001767,-0.00028307,0.0,0 STARLINK-3601,1 51804U 22017AN  22250.83335648 -.00028307  00000-0 -17670-2 0  9996,2 51804  53.2186 310.1263 0001280  72.1704 158.4504 15.08850670 31194,6917.848000000001,95.437,540.5980000000002,538.827,0.0
51804.0,STARLINK-3601,PAYLOAD,2022-09-07 22:00:00,15.08836002,0.0001259,53.2188,309.752,75.1946,248.2668,6.437399999999999e-05,7.37e-06,0.0,0 STARLINK-3601,1 51804U 22017AN  22250.91667824  .00000737  00000-0  64374-4 0  9999,2 51804  53.2188 309.7520 0001259  75.1946 248.2668 15.08836002  1305,6917.893,95.438,540.629,538.887,0.0
51804.0,STARLINK-3601,PAYLOAD,2022-09-08 06:00:00,15.08858813,0.000127,53.2188,308.2558,78.4989,256.5486,-0.0005344,-8.787e-05,0.0,0 STARLINK-3601,1 51804U 22017AN  22251.25001157 -.00008787  00000-0 -53440-3 0  9994,2 51804  53.2188 308.2558 0001270  78.4989 256.5486 15.08858813 31257,6917.823,95.436,540.566,538.809,0.0
51804.0,STARLINK-3601,PAYLOAD,2022-09-08 14:00:01,15.08832182,0.0001351999999999,53.2184,306.761,68.2916,278.3712,0.0025369,0.00040309,0.0,0 STARLINK-3601,1 51804U 22017AN  22251.58334491  .00040309  00000-0  25369-2 0  9992,2 51804  53.2184 306.7610 0001352  68.2916 278.3712 15.08832182  1301,6917.904,95.438,540.705,538.8340000000002,0.0
51804.0,STARLINK-3601,PAYLOAD,2022-09-08 22:00:00,15.08850534,0.0001301,53.2182,305.2631,76.9386,281.3373,-0.0013350999999999,-0.00021479,0.0,0 STARLINK-3601,1 51804U 22017AN  22251.91667824 -.00021479  00000-0 -13351-2 0  9995,2 51804  53.2182 305.2631 0001301  76.9386 281.3373 15.08850534  1305,6917.848000000001,95.437,540.613,538.813,0.0
51804.0,STARLINK-3601,PAYLOAD,2022-09-09 14:00:01,15.08835178,0.0001372,53.2176,302.2722,69.1665,312.3108,0.0013338,0.00021,0.0,0 STARLINK-3601,1 51804U 22017AN  22252.58334491  .00021000  00000-0  13338-2 0  9993,2 51804  53.2176 302.2722 0001372  69.1665 312.3108 15.08835178 31455,6917.895,95.438,540.7090000000002,538.811,0.0
